GLOBALSTAR M045 [-]     
1 25676U 99019A   24102.39374994 -.00000098  00000+0 -35526-4 0  9994
2 25676  51.9955  95.9408 0000625  88.7284  59.2813 12.27034557140387
GLOBALSTAR M019 [-]     
1 25677U 99019B   24102.54967661 -.00000122  00000+0 -33494-3 0  9990
2 25677  51.9871 195.4976 0001561 157.4425 307.3721 12.13855174132727
GLOBALSTAR M044 [-]     
1 25678U 99019C   24102.38256880 -.00000087  00000+0 -43828-4 0  9990
2 25678  51.9952  93.2994 0006156 288.0535 220.7209 11.90230558119902
GLOBALSTAR M042 [-]     
1 25679U 99019D   24102.54779845 -.00000031  00000+0  57264-3 0  9996
2 25679  52.0002 189.4583 0003504 129.9217 332.2931 12.22059349132489
GLOBALSTAR M025 [-]     
1 25770U 99031A   24102.64088387 -.00000082  00000+0 -44841-3 0  9991
2 25770  51.9806  78.9688 0001370 142.9936  28.9027 11.22550053433241
GLOBALSTAR M049 [-]     
1 25771U 99031B   24102.37554858 -.00000120  00000+0 -18895-2 0  9995
2 25771  51.9855  92.6473 0002889  10.3048 349.7807 11.12104259 69381
GLOBALSTAR M047 [-]     
1 25772U 99031C   24102.32352235 -.00000065  00000+0  11480-3 0  9997
2 25772  51.9804 130.9963 0016532 240.8117 119.1035 11.31919621422207
GLOBALSTAR M052 [-]     
1 25773U 99031D   24102.57685007 -.00000055  00000+0  35851-3 0  9998
2 25773  51.9852 206.9390 0003177 171.5880 201.5330 11.15050018430365
